LEMUR-2-PETERG          
1 42841U 17042S   26068.48235713  .00023240  00000+0  81076-3 0  9993
2 42841  97.3980 253.6596 0003700 341.6938  18.4169 15.29611459473171
STARLINK-34295          
1 64455U 25130T   26068.31944634  .00018585  00000+0  63795-3 0  9990
2 64455  53.1599  90.4461 0000947  66.4686 293.6414 15.30204072 40645
